[Satellite]
VERSION=1.1
NAME=INMARSAT 2-F1
NICKNAME=INMARSAT 2-F1
TLE1=1 20918U 90093A   11057.47925906  .00000087  00000-0  10000-3 0  3642
TLE2=2 20918   7.9559  49.5812 0003931 275.7464 221.2002  1.00271986 70883
